NORAD_CAT_ID,OBJECT_NAME,OBJECT_TYPE,EPOCH,MEAN_MOTION,ECCENTRICITY,INCLINATION,RA_OF_ASC_NODE,ARG_OF_PERICENTER,MEAN_ANOMALY,BSTAR,MEAN_MOTION_DOT,MEAN_MOTION_DDOT,TLE_LINE0,TLE_LINE1,TLE_LINE2,SEMIMAJOR_AXIS,PERIOD,APOGEE,PERIGEE,DECAYED
53011.0,STARLINK-4265,PAYLOAD,2022-11-27 16:24:05,15.0884021,0.0001744,53.2184,62.1864,47.2187,312.8952,8.737e-05,1.103e-05,0.0,0 STARLINK-4265,1 53011U 22076AB  22331.68339674  .00001103  00000-0  87370-4 0  9998,2 53011  53.2184  62.1864 0001744  47.2187 312.8952 15.08840210 22123,6917.88,95.438,540.951,538.538,0.0
53011.0,STARLINK-4265,PAYLOAD,2022-11-28 06:42:34,15.08843176,0.0001767,53.2182,59.5103,46.7991,313.3148,0.00049324,7.571e-05,0.0,0 STARLINK-4265,1 53011U 22076AB  22332.27956161  .00007571  00000-0  49324-3 0  9991,2 53011  53.2182  59.5103 0001767  46.7991 313.3148 15.08843176 22216,6917.871,95.437,540.9580000000002,538.513,0.0
53011.0,STARLINK-4265,PAYLOAD,2022-11-28 16:14:52,15.08842662,0.0001739,53.2185,57.7264,45.3104,314.8029,0.00022405,3.28e-05,0.0,0 STARLINK-4265,1 53011U 22076AB  22332.67700116  .00003280  00000-0  22405-3 0  9996,2 53011  53.2185  57.7264 0001739  45.3104 314.8029 15.08842662 22748,6917.871999999999,95.437,540.94,538.534,0.0
53011.0,STARLINK-4265,PAYLOAD,2022-11-29 04:57:58,15.08835507,0.0001745,53.2185,55.3467,45.3069,314.8065,9.3731e-05,1.204e-05,0.0,0 STARLINK-4265,1 53011U 22076AB  22333.20692609  .00001204  00000-0  93731-4 0  9998,2 53011  53.2185  55.3467 0001745  45.3069 314.8065 15.08835507 22823,6917.894,95.438,540.966,538.552,0.0
53011.0,STARLINK-4265,PAYLOAD,2022-11-29 06:33:21,15.08835305,0.0001754,53.218,55.0497,42.4699,317.6429,6.680399999999999e-05,7.75e-06,0.0,0 STARLINK-4265,1 53011U 22076AB  22333.27316603  .00000775  00000-0  66804-4 0  9995,2 53011  53.2180  55.0497 0001754  42.4699 317.6429 15.08835305 22365,6917.895,95.438,540.9730000000002,538.5459999999998,0.0
53011.0,STARLINK-4265,PAYLOAD,2022-11-29 14:30:17,15.08842416,0.0001757,53.2183,53.5626,45.5624,314.5512,0.00033548,5.056e-05,0.0,0 STARLINK-4265,1 53011U 22076AB  22333.60436544  .00005056  00000-0  33548-3 0  9994,2 53011  53.2183  53.5626 0001757  45.5624 314.5512 15.08842416 22416,6917.873000000001,95.437,540.953,538.523,0.0
53011.0,STARLINK-4265,PAYLOAD,2022-11-30 17:31:50,15.08848992,0.0001857,53.2178,48.5077,44.5958,315.5183,0.00028027,4.176e-05,0.0,0 STARLINK-4265,1 53011U 22076AB  22334.73044191  .00004176  00000-0  28027-3 0  9990,2 53011  53.2178  48.5077 0001857  44.5958 315.5183 15.08848992 23055,6917.853,95.437,541.003,538.433,0.0
53011.0,STARLINK-4265,PAYLOAD,2022-12-01 04:39:32,15.08841804,0.0001781,53.2176,46.4261,42.5821,317.5309,0.00010294,1.351e-05,0.0,0 STARLINK-4265,1 53011U 22076AB  22335.19412320  .00001351  00000-0  10294-3 0  9993,2 53011  53.2176  46.4261 0001781  42.5821 317.5309 15.08841804 23123,6917.875,95.437,540.972,538.508,0.0
53011.0,STARLINK-4265,PAYLOAD,2022-12-01 12:36:29,15.0880468,0.0001556,53.2182,44.9396,50.7565,309.3565,-0.00052513,-8.628e-05,0.0,0 STARLINK-4265,1 53011U 22076AB  22335.52534011 -.00008628  00000-0 -52513-3 0  9998,2 53011  53.2182  44.9396 0001556  50.7565 309.3565 15.08804680 22705,6917.988,95.44,540.93,538.7769999999998,0.0
53011.0,STARLINK-4265,PAYLOAD,2022-12-01 17:22:36,15.0885202,0.0001674,53.2181,44.0474,40.8643,319.2475,0.00016371,2.319e-05,0.0,0 STARLINK-4265,1 53011U 22076AB  22335.72403617  .00002319  00000-0  16371-3 0  9998,2 53011  53.2181  44.0474 0001674  40.8643 319.2475 15.08852020 23207,6917.844,95.437,540.867,538.5509999999998,0.0
53011.0,STARLINK-4265,PAYLOAD,2022-12-02 12:27:14,15.08845299,0.0001911,53.2194,40.4795,42.9735,317.1406,4.4152e-05,4.15e-06,0.0,0 STARLINK-4265,1 53011U 22076AB  22336.51891716  .00000415  00000-0  44152-4 0  9991,2 53011  53.2194  40.4795 0001911  42.9735 317.1406 15.08845299 23320,6917.864000000001,95.437,541.0509999999998,538.4069999999998,0.0
53011.0,STARLINK-4265,PAYLOAD,2022-12-02 18:48:47,15.08840764,0.0001874,53.2192,39.2899,43.7938,316.3202,-1.217e-05,-4.82e-06,0.0,0 STARLINK-4265,1 53011U 22076AB  22336.78388088 -.00000482  00000-0 -12170-4 0  9994,2 53011  53.2192  39.2899 0001874  43.7938 316.3202 15.08840764 22899,6917.878000000002,95.438,541.039,538.447,0.0
53011.0,STARLINK-4265,PAYLOAD,2022-12-03 13:53:24,15.08845971,0.0002015,53.2187,35.722,44.1864,315.9289,0.00013185,1.811e-05,0.0,0 STARLINK-4265,1 53011U 22076AB  22337.57875616  .00001811  00000-0  13185-3 0  9991,2 53011  53.2187  35.7220 0002015  44.1864 315.9289 15.08845971 23484,6917.861999999999,95.437,541.121,538.3330000000002,0.0
53011.0,STARLINK-4265,PAYLOAD,2022-12-03 15:28:48,15.08836258,0.0001945,53.2185,35.4242,44.63399999999999,315.4809,-2.6024e-05,-7.02e-06,0.0,0 STARLINK-4265,1 53011U 22076AB  22337.64500136 -.00000702  00000-0 -26024-4 0  9998,2 53011  53.2185  35.4242 0001945  44.6340 315.4809 15.08836258 23029,6917.892,95.438,541.102,538.411,0.0
53011.0,STARLINK-4265,PAYLOAD,2022-12-03 18:39:34,15.0883928,0.0001952,53.2185,34.8296,44.4431,315.6717,1.3045e-05,-8.1e-07,0.0,0 STARLINK-4265,1 53011U 22076AB  22337.77748013 -.00000081  00000-0  13045-4 0  9998,2 53011  53.2185  34.8296 0001952  44.4431 315.6717 15.08839280 23510,6917.8830000000025,95.438,541.0980000000002,538.3969999999998,0.0
53011.0,STARLINK-4265,PAYLOAD,2022-12-04 13:44:12,15.08833251,0.0002021,53.2187,31.2611,45.2574,314.8583,-1.8276e-05,-5.79e-06,0.0,0 STARLINK-4265,1 53011U 22076AB  22338.57236362 -.00000579  00000-0 -18276-4 0  9990,2 53011  53.2187  31.2611 0002021  45.2574 314.8583 15.08833251 23164,6917.901,95.438,541.164,538.368,0.0
53011.0,STARLINK-4265,PAYLOAD,2022-12-04 20:05:44,15.08842126,0.0002034,53.2187,30.0719,45.3457,314.7701,0.00024389,3.596e-05,0.0,0 STARLINK-4265,1 53011U 22076AB  22338.83732251  .00003596  00000-0  24389-3 0  9998,2 53011  53.2187  30.0719 0002034  45.3457 314.7701 15.08842126 23202,6917.874,95.437,541.146,538.332,0.0
53011.0,STARLINK-4265,PAYLOAD,2022-12-05 04:02:40,15.08849453,0.0002026,53.2187,28.5852,44.215,315.9004,0.00038657,5.871e-05,0.0,0 STARLINK-4265,1 53011U 22076AB  22339.16852013  .00005871  00000-0  38657-3 0  9995,2 53011  53.2187  28.5852 0002026  44.2150 315.9004 15.08849453 23727,6917.851,95.437,541.118,538.315,0.0
53011.0,STARLINK-4265,PAYLOAD,2022-12-05 11:59:36,15.08841594,0.0001999,53.2186,27.0986,43.8898,316.2253,0.00014161,1.966e-05,0.0,0 STARLINK-4265,1 53011U 22076AB  22339.49972229  .00001966  00000-0  14161-3 0  9998,2 53011  53.2186  27.0986 0001999  43.8898 316.2253 15.08841594 23302,6917.876,95.437,541.123,538.3580000000002,0.0
53011.0,STARLINK-4265,PAYLOAD,2022-12-05 13:34:59,15.08842045,0.0002006,53.2186,26.8013,43.6508,316.4642,0.00014859,2.078e-05,0.0,0 STARLINK-4265,1 53011U 22076AB  22339.56596222  .00002078  00000-0  14859-3 0  9990,2 53011  53.2186  26.8013 0002006  43.6508 316.4642 15.08842045 23784,6917.874,95.437,541.127,538.351,0.0
53011.0,STARLINK-4265,PAYLOAD,2022-12-05 19:56:31,15.0884983,0.0002017,53.2186,25.612,43.2339,316.8811,0.00030657,4.596e-05,0.0,0 STARLINK-4265,1 53011U 22076AB  22339.83091936  .00004596  00000-0  30657-3 0  9993,2 53011  53.2186  25.6120 0002017  43.2339 316.8811 15.08849830 23354,6917.85,95.437,541.111,538.32,0.0
53011.0,STARLINK-4265,PAYLOAD,2022-12-06 11:50:22,15.08838193,0.0001925,53.2185,22.6385,41.2637,318.8501,-7.2047000000000015e-06,-4.03e-06,0.0,0 STARLINK-4265,1 53011U 22076AB  22340.49332135 -.00000403  00000-0 -72047-5 0  9992,2 53011  53.2185  22.6385 0001925  41.2637 318.8501 15.08838193 23458,6917.886,95.438,541.0830000000002,538.419,0.0
53011.0,STARLINK-4265,PAYLOAD,2022-12-06 15:01:09,15.08833357,0.0001997,53.2184,22.0438,42.113,318.0016,-4.0091e-05,-9.26e-06,0.0,0 STARLINK-4265,1 53011U 22076AB  22340.62580388 -.00000926  00000-0 -40091-4 0  9995,2 53011  53.2184  22.0438 0001997  42.1130 318.0016 15.08833357 23941,6917.901,95.438,541.1469999999998,538.384,0.0
53011.0,STARLINK-4265,PAYLOAD,2022-12-06 16:36:32,15.08833942,0.0001981,53.2185,21.7464,41.9086,318.2057,4.8759e-05,4.88e-06,0.0,0 STARLINK-4265,1 53011U 22076AB  22340.69204557  .00000488  00000-0  48759-4 0  9993,2 53011  53.2185  21.7464 0001981  41.9086 318.2057 15.08833942 23483,6917.899,95.438,541.134,538.393,0.0
53011.0,STARLINK-4265,PAYLOAD,2022-12-07 19:38:06,15.08844277,0.000205,53.2185,16.6911,41.2888,318.8259,0.00016388,2.321e-05,0.0,0 STARLINK-4265,1 53011U 22076AB  22341.81812565  .00002321  00000-0  16388-3 0  9992,2 53011  53.2185  16.6911 0002050  41.2888 318.8259 15.08844277 23656,6917.8669999999975,95.437,541.15,538.314,0.0
53011.0,STARLINK-4265,PAYLOAD,2022-12-07 21:13:29,15.0884455,0.0002035,53.2183,16.3939,41.2913,318.8233,0.00023547,3.462e-05,0.0,0 STARLINK-4265,1 53011U 22076AB  22341.88436546  .00003462  00000-0  23547-3 0  9992,2 53011  53.2183  16.3939 0002035  41.2913 318.8233 15.08844550 24133,6917.866,95.437,541.139,538.3240000000002,0.0
53011.0,STARLINK-4265,PAYLOAD,2022-12-08 11:31:57,15.08843445,0.0002067,53.218,13.7176,41.8713,318.2437,0.00032138,4.831e-05,0.0,0 STARLINK-4265,1 53011U 22076AB  22342.48052718  .00004831  00000-0  32138-3 0  9991,2 53011  53.2180  13.7176 0002067  41.8713 318.2437 15.08843445 23752,6917.87,95.437,541.165,538.305,0.0
53011.0,STARLINK-4265,PAYLOAD,2022-12-09 11:22:44,15.08842185,0.0002126,53.2176,9.2573,27.7807,332.3299,-2.8069e-05,-7.35e-06,0.0,0 STARLINK-4265,1 53011U 22076AB  22343.47412158 -.00000735  00000-0 -28069-4 0  9999,2 53011  53.2176   9.2573 0002126  27.7807 332.3299 15.08842185 24373,6917.874,95.437,541.2090000000002,538.268,0.0
53011.0,STARLINK-4265,PAYLOAD,2022-12-09 19:19:40,15.08820285,0.0002293,53.2172,7.7734,29.8141,330.2981,-0.00048911,-8.06e-05,0.0,0 STARLINK-4265,1 53011U 22076AB  22343.80532706 -.00008060  00000-0 -48911-3 0  9994,2 53011  53.2172   7.7734 0002293  29.8141 330.2981 15.08820285 24428,6917.941,95.439,541.3919999999998,538.219,0.0
